STARLINK-4114           
1 53162U 22083AG  26092.16233021  .00000763  00000+0  66057-4 0  9992
2 53162  53.2175  58.7579 0001327  88.5401 271.5743 15.08837161204906
STARLINK-4104           
1 53163U 22083AH  26092.15404037  .00000444  00000+0  46021-4 0  9994
2 53163  53.2175  58.9296 0001361  87.6721 272.4427 15.08833608204909
STARLINK-4116           
1 53164U 22083AJ  26092.15034789  .00000671  00000+0  60244-4 0  9993
2 53164  53.2173  58.8029 0001178  92.3552 267.7575 15.08816000204900
STARLINK-4090           
1 53165U 22083AK  26092.20186026 -.00000584  00000+0 -18614-4 0  9991
2 53165  53.2179  58.5702 0001343  85.5383 274.5763 15.08843753204913
STARLINK-4110           
1 53166U 22083AL  26092.16670139  .00036369  00000+0  21093-2 0  9991
2 53166  53.2176  58.3338 0003129  61.9966 275.9140 15.11848946  5740
STARLINK-3683           
1 53167U 22083AM  26092.15354564 -.00002242  00000+0 -12283-3 0  9999
2 53167  53.2186  43.7772 0001319  89.7295 270.3849 15.08836757205104
STARLINK-4105           
1 53168U 22083AN  26092.20553385  .00000062  00000+0  21982-4 0  9991
2 53168  53.2181  58.5548 0001378  94.7536 265.3613 15.08835114204911
STARLINK-4117           
1 53169U 22083AP  26092.13150335  .00001159  00000+0  90875-4 0  9997
2 53169  53.2176  44.1439 0001315  88.0748 272.0395 15.08836721205095
STARLINK-4095           
1 53170U 22083AQ  26092.16734843 -.00000429  00000+0 -88760-5 0  9996
2 53170  53.2177  53.6771 0001381  88.0790 272.0360 15.08835051204975
STARLINK-4052           
1 53171U 22083AR  26092.14202423 -.00000761  00000+0 -29745-4 0  9995
2 53171  53.2191  28.5985 0001248  84.7307 275.3827 15.08825401205310
STARLINK-4299           
1 53172U 22083AS  26092.15998014  .00000477  00000+0  48082-4 0  9992
2 53172  53.2177  53.6688 0001404  86.8130 273.3023 15.08839136204961
STARLINK-4300           
1 53173U 22083AT  26092.11399294  .00000300  00000+0  36949-4 0  9998
2 53173  53.2186  33.9552 0001454  90.3180 269.7979 15.08835126205238
STARLINK-4205           
1 53174U 22083AU  26092.20187899  .00000157  00000+0  27950-4 0  9997
2 53174  53.2176  68.5034 0001491  91.3842 268.7321 15.08837990204762
STARLINK-4292           
1 53175U 22083AV  26092.20461575  .00000984  00000+0  79944-4 0  9992
2 53175  53.2170  68.5567 0001446  91.3496 268.7662 15.08836099204760
STARLINK-4294           
1 53176U 22083AW  26092.14249683  .00000755  00000+0  65501-4 0  9990
2 53176  53.2180  43.7466 0001399  88.4035 271.7117 15.08844696205108
STARLINK-4298           
1 53177U 22083AX  26092.10663184  .00000161  00000+0  28233-4 0  9995
2 53177  53.2196  33.9846 0001789 115.2953 244.8225 15.08839444205230
STARLINK-4280           
1 53178U 22083AY  26092.19817124  .00000649  00000+0  58881-4 0  9993
2 53178  53.2178  58.5862 0001300  92.3370 267.7771 15.08838372204899
STARLINK-4276           
1 53179U 22083AZ  26092.19076128  .00000821  00000+0  69680-4 0  9996
2 53179  53.2182  18.2184 0001384  87.5795 272.5356 15.08845822205469
STARLINK-4258           
1 53180U 22083BA  26092.08407770 -.00000094  00000+0  12182-4 0  9995
2 53180  53.2187  18.9676 0001319  92.4863 267.6280 15.08834827205440
STARLINK-4278           
1 53182U 22083BC  26092.03671956  .00003710  00000+0  25106-3 0  9997
2 53182  53.2191  34.3018 0001206  96.6827 263.4302 15.08836975205221
STARLINK-4268           
1 53183U 22083BD  26092.11122343  .00001173  00000+0  91765-4 0  9994
2 53183  53.2198  23.8905 0001373  93.8164 266.2985 15.08839667205370
STARLINK-4257           
1 53184U 22083BE  26092.18708756  .00000127  00000+0  26069-4 0  9993
2 53184  53.2190  18.2186 0001425  93.4738 266.6417 15.08834825205479
STARLINK-4391           
1 53189U 22084A   26092.15001296  .00000116  00000+0  12224-4 0  9997
2 53189  97.6020 154.2986 0001200 152.9596 207.1694 15.05648550203583
STARLINK-4332           
1 53190U 22084B   26092.16386192  .00000242  00000+0  20971-4 0  9999
2 53190  97.6042 154.3514 0001249 134.4773 225.6556 15.05648352203584
STARLINK-4369           
1 53191U 22084C   26092.14589582  .00000178  00000+0  16536-4 0  9996
2 53191  97.6010 153.2366 0001405  83.8717 276.2669 15.05647740202836
STARLINK-4375           
1 53192U 22084D   26092.12786307  .00000371  00000+0  29941-4 0  9998
2 53192  97.6023 154.3105 0001225 147.4483 212.6820 15.05652368203578
STARLINK-4351           
1 53193U 22084E   26092.15800487 -.00000207  00000+0 -10390-4 0  9996
2 53193  97.6022 153.2300 0001698  87.2222 272.9198 15.04831406203858
STARLINK-4382           
1 53194U 22084F   26092.14447829  .00000356  00000+0  28885-4 0  9994
2 53194  97.6015 154.2970 0000936 102.0107 258.1224 15.05647913202907
STARLINK-4404           
1 53195U 22084G   26092.19064731  .02312975  25926-5  69982-3 0  9994
2 53195  97.6008 181.5163 0009127 273.1941  86.8306 16.26848828205243
STARLINK-4407           
1 53196U 22084H   26092.19100582  .11165197  26951-5  23764-3 0  9999
2 53196  97.5899 182.1097 0013188 280.8432  79.1386 16.45799667205268
STARLINK-4403           
1 53197U 22084J   26092.16670139  .00016373  00000+0  11369-2 0  9994
2 53197  97.6020 153.2148 0001442  78.9195 348.8890 15.05631893  5764
STARLINK-4385           
1 53198U 22084K   26092.11820879  .00001042  00000+0  76378-4 0  9998
2 53198  97.6019 153.2601 0001445  90.3047 269.8345 15.05651057203495
STARLINK-4395           
1 53199U 22084L   26092.11955631  .00000515  00000+0  39905-4 0  9993
2 53199  97.6028 154.3047 0000801 106.9368 253.1946 15.05650455202906
STARLINK-4417           
1 53200U 22084M   26092.13894527 -.00002830  00000+0 -19191-3 0  9992
2 53200  97.6025 154.2878 0000530 116.9666 243.1615 15.05671528203567
STARLINK-4405           
1 53201U 22084N   26092.15555803  .00005341  00000+0  37396-3 0  9991
2 53201  97.6023 154.4018 0000773 127.4975 232.6322 15.05661377202910
STARLINK-4411           
1 53202U 22084P   26092.17494161  .00000349  00000+0  28429-4 0  9994
2 53202  97.6034 154.3860 0000803 105.2585 254.8730 15.05648408202911
STARLINK-4409           
1 53203U 22084Q   26092.17217098  .00000258  00000+0  22073-4 0  9995
2 53203  97.6038 154.3722 0000889 130.9301 229.2003 15.05648723202917
STARLINK-4410           
1 53204U 22084R   26092.15758631  .00017188  00000+0  13342-2 0  9994
2 53204  97.6011 153.1844 0001545  45.7543 314.3808 15.01412627203493
STARLINK-4397           
1 53205U 22084S   26092.16663950 -.00000178  00000+0 -81125-5 0  9995
2 53205  97.6040 154.3715 0001218  87.6035 272.5331 15.05668812202919
STARLINK-4408           
1 53206U 22084T   26092.11401676  .00000791  00000+0  59000-4 0  9991
2 53206  97.6031 154.2963 0000453 125.5516 234.5753 15.05650810202904
STARLINK-4413           
1 53207U 22084U   26092.16670139  .00050387  00000+0  34923-2 0  9990
2 53207  97.6021 153.1929 0002106 110.5756  17.6885 15.05426736  5603
STARLINK-4425           
1 53208U 22084V   26092.14035620  .00000910  00000+0  67248-4 0  9994
2 53208  97.6015 153.1979 0001307  71.7959 288.3410 15.05651588202837
STARLINK-4423           
1 53209U 22084W   26092.15698112  .00000753  00000+0  56428-4 0  9990
2 53209  97.6036 153.3083 0001543  88.8217 271.3187 15.05646126202843
STARLINK-4427           
1 53210U 22084X   26092.16670139  .00020731  00000+0  14363-2 0  9990
2 53210  97.6022 153.2229 0001103  64.4974  93.3120 15.05660747  5769
STARLINK-4416           
1 53212U 22084Z   26092.16938254 -.00006626  00000+0 -45513-3 0  9998
2 53212  97.6035 154.3591 0000978 167.2687 192.8565 15.05676060202909
STARLINK-4414           
1 53213U 22084AA  26092.11267038  .00001926  00000+0  13761-3 0  9995
2 53213  97.6029 153.1900 0002222  96.2036 263.9444 15.05664109203354
STARLINK-4353           
1 53214U 22084AB  26092.16670139  .00020955  00000+0  14522-2 0  9999
2 53214  97.6024 153.2166 0000968  86.8501 100.9172 15.05650799  5721
STARLINK-4335           
1 53215U 22084AC  26092.15278703 -.00000127  00000+0 -45778-5 0  9991
2 53215  97.6024 154.3545 0000983 127.2789 232.8527 15.05647876203439
STARLINK-4376           
1 53216U 22084AD  26092.12099316  .00033093  00000+0  22887-2 0  9999
2 53216  97.6032 153.1878 0001324  87.7956 272.3422 15.05622857202839
STARLINK-4384           
1 53218U 22084AF  26092.13063832  .00000558  00000+0  42847-4 0  9996
2 53218  97.6025 154.3912 0000653 110.4974 249.6323 15.05652416203431
STARLINK-4373           
1 53219U 22084AG  26092.15832473  .00000140  00000+0  13898-4 0  9995
2 53219  97.6031 154.3307 0001703 113.5811 246.5595 15.05646038202910
STARLINK-4363           
1 53220U 22084AH  26092.16670139  .00021842  00000+0  15140-2 0  9999
2 53220  97.6030 153.2091 0001442  81.8007 150.9796 15.05632108  5761
STARLINK-4377           
1 53221U 22084AJ  26092.15143865  .00000074  00000+0  93678-5 0  9999
2 53221  97.6028 153.2667 0001432  88.7706 271.3684 15.05648046202849
STARLINK-4356           
1 53224U 22084AM  26092.16670139  .00050538  00000+0  35525-2 0  9996
2 53224  97.6027 153.1956 0002743  64.1135 155.7749 15.04897316  5608
STARLINK-4358           
1 53225U 22084AN  26092.16108932  .00000393  00000+0  31445-4 0  9997
2 53225  97.6036 154.3108 0000635 142.6901 217.4370 15.05648921202918
STARLINK-4359           
1 53226U 22084AP  26092.16670139  .00018805  00000+0  13044-2 0  9991
2 53226  97.6035 153.2286 0001928  83.8475 223.9974 15.05638776  5753
STARLINK-4366           
1 53227U 22084AQ  26092.14171242 -.00000548  00000+0 -33748-4 0  9993
2 53227  97.6013 154.3084 0000831 117.7205 242.4106 15.05645203202911
STARLINK-4365           
1 53228U 22084AR  26092.13482512  .00000381  00000+0  30593-4 0  9996
2 53228  97.6014 153.2782 0001416  92.3122 267.8267 15.05650537202849
STARLINK-4367           
1 53229U 22084AS  26092.14724640  .00000183  00000+0  16903-4 0  9998
2 53229  97.6019 154.3193 0000955 115.6739 244.4586 15.05649289202918
